Name,Company,Industry,CO2_emissions_t,Source_CO2_emissions,Source,City,Province,Latitude,Longitude
F�brica de aluminio de Aluar,Aluar,Aluminium,612057.60,Industrial point source,,Puerto Madryn,Chubut,-42.636151405294,-65.102845300067
Bunge Campana,Bunge Argentina S.A,Ammonia,27027.00,Industrial point source,,Campana,Buenos Aires,-34.093540477338,-59.004652749122
Profertil Bahia Blanca,Profertil S.A.,Ammonia,710621.00,Industrial point source,https://rs.profertil.com.ar/,Bahia Blanca,Buenos Aires,-38.784244912389,-62.281688152983
Austin Powder,Austin Powder,Ammonia,54600.00,Industrial point source,,El Galp�n,Salta,-25.379192832399,-64.651986584188
Bioenerg�a la Corona,Bioenergia La Corona S.A.,Bioethanol,24300.00,Biogenic point source,Carbio,Concepci�n,Tucum�n,-27.354815697666,-65.602941337606
Bioenerg�as Agropecuarias S.A.,BIOENERG�ASAGROPECUARIAS S.A.,Bioethanol,24750.00,Biogenic point source,Carbio,General Obligado,Santa Fe,-28.487611654481,-59.396841152866
Ingenio Santa Rosa,Bioenerg�a Santa Rosa S.A.,Bioethanol,24300.00,Biogenic point source,Carbio,Monteros,Tucum�n,-27.221398484002,-65.516954427435
Ingenio Ledesma,Bio Ledesma S.A.,Bioethanol,74250.00,Biogenic point source,Carbio,Libertador General San Martin,Jujuy,-23.824367770667,-64.788009742716
Bio San Isidro,Bio San Isidro S.A.,Bioethanol,10125.00,Biogenic point source,Carbio,Campo Santo,Salta,-24.681076499462,-65.098028752545
Biotrinidad,Biotrinidad S.A.,Bioethanol,21600.00,Biogenic point source,Carbio,San Miguel de Tucum�n,Tucum�n,-26.828263171350,-65.208843723293
Compa��a Bioenerg�tica La Florida,Compa��a Bioenerg�tica La Florida S.A.,Bioethanol,93750.00,Biogenic point source,Carbio,La Florida,Tucum�n,-26.817311067583,-65.085387664602
Energ�as Ecol�gicas de Tucum�n,Energ�as Ecol�gicas de Tucum�n - Grupo Colombres,Bioethanol,24750.00,Biogenic point source,Carbio,Aguilares,Tucum�n,-27.457104897341,-65.609855130089
Fronterita Energ�a S.A.,Fronterita Energia S.A.,Bioethanol,24000.00,Biogenic point source,Carbio,Juan XXIII,Tucum�n,-27.023571204313,-65.301579272432
Ingenio R�o Grande,Rio Grande Energia S.A.,Bioethanol,16200.00,Biogenic point source,Carbio,La Mendieta,Jujuy,-24.312587422242,-64.968369396614
ACA,Aca Bio Cooperativa Ltda.,Bioethanol,93750.00,Biogenic point source,Carbio,Villa Mar�a,C�rdoba,-32.415971563824,-63.161624819303
Bio IV,Bioetanol Rio Cuarto A.A.,Bioethanol,75000.00,Biogenic point source,Carbio,R�o Cuarto,C�rdoba,-33.179986705747,-64.383294247291
Diaser,Derivados San Luis,Bioethanol,69300.00,Biogenic point source,Carbio,San Luis,San Luis,-33.325633327674,-66.363723848115
Ma�z Energ�a,MA�Z ENERG�A S.A.,Bioethanol,44100.00,Biogenic point source,Carbio,Ciudad de C�rdoba,C�rdoba,-31.371914251034,-64.181859290108
Proma�z,Promaiz S.A.,Bioethanol,165000.00,Biogenic point source,Carbio,Alejandro Roca,C�rdoba,-33.365375379094,-63.717121341109
Vicentin,Vicentin S.A.I.C.,Bioethanol,86250.00,Biogenic point source,Carbio,Avellaneda,Santa Fe,-31.620994924442,-60.714993309701
Seaboard Energ�a Renovables y Alimentos,Seaboard Energ�a Renovables y Alimentos,Bioethanol,185625.00,Biogenic point source,Carbio,Or�n,Salta,-23.202240802675,-64.296167721715
Bioenerg�tica Leales S.A.,Bioenerg�tica Leales S.A.,Bioethanol,31500.00,Biogenic point source,Carbio,Cevil Pozo,Tucum�n,-26.844247714198,-65.142648974133
Bio Atar S.A.,Bio Atar S.A.,Bioethanol,49500.00,Biogenic point source,Carbio,Alderetes,Tucum�n,-26.834699386014,-65.152794845918
Arauco Argentina S.A. ,Arauco Argentina S.A. ,Cellulose and paper,875000.00,Industrial point source,,Puerto Esperanza,Misiones,-25.975739607496,-54.633769337301
Celulosa Argentina S.A.,Celulosa Argentina S.A.,Cellulose and paper,416400.00,Industrial point source,,Capitan Bermudez,Santa Fe,-32.736461684818,-60.702180344178
Papel Prensa S.A.I.C.F.,Papel Prensa S.A.I.C.F.,Cellulose and paper,421762.50,Industrial point source,,San Pedro,Buenos Aires,-33.721640302338,-59.627749242683
Papel Misionero,Papel Misionero,Cellulose and paper,272137.50,Industrial point source,,Puerto Leoni,Misiones,-26.935618555667,-55.119804415065
Papelera del NOA S.A.,Papelera del NOA S.A.,Cellulose and paper,85425.00,Industrial point source,,R�o Blanco,Jujuy,-24.231958460070,-65.230145288909
F�brica de Papel Ledesma,F�brica de Papel Ledesma,Cellulose and paper,212250.00,Industrial point source,,Libertador General San Mart�n,Jujuy,-23.827656844375,-64.795513340677
Fana Qu�mica SA,Fana Qu�mica SA,Cellulose and paper,4000.00,Industrial point source,,San Jos�,Entre R�os,,
F�brica L'Amal�,Loma Negra,Cement,2442352.94,Industrial point source,https://www.lomanegra.com/nuestras-unidades/,Olavarr�a,Buenos Aires,-37.036077350579,-60.298102492056
F�brica Olavarr�a,Loma Negra,Cement,1144852.94,Industrial point source,https://www.lomanegra.com/nuestras-unidades/,Olavarr�a,Buenos Aires,-36.937255440162,-60.164846338630
F�brica Sierras Bayas,Loma Negra,Cement,,Industrial point source,https://www.lomanegra.com/nuestras-unidades/,Sierras Bayas,Buenos Aires,-36.938389904003,-60.165031183490
F�brica Barker,Loma Negra,Cement,,Industrial point source,https://www.lomanegra.com/nuestras-unidades/,Benito Juarez,Buenos Aires,-37.682835584301,-59.388828000000
Planta Ramallo,Loma Negra,Cement,,Industrial point source,https://www.lomanegra.com/nuestras-unidades/,Ramallo,Buenos Aires,-33.380229777465,-60.153251169315
F�brica Catamarca,Loma Negra,Cement,1373823.53,Industrial point source,https://www.lomanegra.com/nuestras-unidades/,El Alto,Catamarca,-28.466200759561,-65.214914338630
F�brica San Juan,Loma Negra,Cement,,Industrial point source,https://www.lomanegra.com/nuestras-unidades/,Rivadavia,San Juan,-31.547171537679,-68.674304830685
F�brica Zapala,Loma Negra,Cement,305294.12,Industrial point source,https://www.lomanegra.com/nuestras-unidades/,Zapala,Neusaqu�n,-38.896618405611,-70.037730846574
F�brica LomaSer,Loma Negra,Cement,,Industrial point source,https://www.lomanegra.com/nuestras-unidades/,Vicente Casares,Buenos Aires,-34.957976832627,-58.642952483835
Planta Holcim Capdeville Mendoza,HOLCIM,Cement,534264.71,Industrial point source,,Las Heras,Mendoza,-32.740610196833,-68.837219638630
Planta Holcim Malague�o,HOLCIM,Cement,2366029.41,Industrial point source,,Malague�o,C�rdoba,-31.477144950888,-64.358355119461
Planta Holcim Puesto Viejo,HOLCIM,Cement,763235.29,Industrial point source,,Puesto Viejo,Jujuy,-24.490383251894,-64.957081198592
Planta Holcim Campana,HOLCIM,Cement,,Industrial point source,,Campana,Buenos Aires,-34.145607191599,-59.020346338249
Planta Campana,Cementos Avellaneda,Cement,,Industrial point source,,Campana,Buenos Aires,-34.169785456995,-59.001845830862
San Jacinto,Cementos Avellaneda,Cement,1831764.71,Industrial point source,,Olavarr�a,Buenos Aires,,
El Grande,Cementos Avellaneda,Cement,839558.82,Industrial point source,,La Calera,San Luis,,
F�brica Comodoro Rivadavia,PCR,Cement,,Industrial point source,,Comodoro Rivadavia,Chubut,-45.802144551281,-67.423681602394
F�brica Pico Truncado,PCR,Cement,457941.18,Industrial point source,,Pico Truncado,Santa Cruz,-46.787138248615,-67.929544215843
Planta sider�rgica Ternium Siderar,Ternium Argentina S.A.,Steel,5286272.00,Industrial point source,https://www.gem.wiki/Planta_sider%C3%BArgica_Ternium_Siderar,Ramallo/San Nicolas,Buenos Aires,-33.322604930395,-60.159454163788
,Ternium Argentina S.A.,Steel,,Industrial point source,,Ensenada,Buenos Aires,-34.806065837331,-57.929249968328
,Ternium Argentina S.A.,Steel,,Industrial point source,,Haedo,Buenos Aires,-34.582627072485,-58.631463214818
,Ternium Argentina S.A.,Steel,,Industrial point source,,Canning,Buenos Aires,-34.799426580998,-58.516106776976
,Ternium Argentina S.A.,Steel,,Industrial point source,,Florencio Varela,Buenos Aires,-34.727223181628,-58.181023790864
,Ternium Argentina S.A.,Steel,,Industrial point source,,Rosario,Santa Fe,-32.889170966540,-60.709182306915
Planta sider�rgica TenarisSiderca,Ternaris S.A. / Siderca S.A.I.C.,Steel,650000.00,Industrial point source,https://www.gem.wiki/Planta_sider%C3%BArgica_TenarisSiderca,Campana,Buenos Aires,-34.152554000000,-58.977388000000
,Ternaris S.A. / Siderca S.A.I.C.,Steel,,Industrial point source,,Valentin Alsina,Buenos Aires,-34.662881539407,-58.406812550802
,Ternaris S.A. / Siderca S.A.I.C.,Steel,,Industrial point source,,Villa Constituci�n,Santa Fe,-33.239811665751,-60.317617387344
,Ternaris S.A. / Siderca S.A.I.C.,Steel,,Industrial point source,,Villa Mercedes,San Luis,-34.692356244145,-58.541869973801
Planta sider�rgia ArcelorMittal Acindar,Acindar Industria Argentina de Aceros S.A.,Steel,1015000.00,Industrial point source,https://www.gem.wiki/Planta_sider%C3%BArgica_ArcelorMittal_Acindar,Villa Constituci�n,Santa Fe,-33.256309000000,-60.292472000000
,Acindar Industria Argentina de Aceros S.A.,Steel,,Industrial point source,,Rosario,Santa Fe,-32.970771234367,-60.722063773338
,Acindar Industria Argentina de Aceros S.A.,Steel,,Industrial point source,,La Tablada,Buenos Aires,,
,Acindar Industria Argentina de Aceros S.A.,Steel,,Industrial point source,,San Nicolas,Buenos Aires,-33.347007971105,-60.258632357077
,Acindar Industria Argentina de Aceros S.A.,Steel,,Industrial point source,,Villa Mercedes,San Luis,-33.720877342117,-65.464442052362
Planta Siderurgica ACERBRAG,Acerbrag S.A. (grupo brasile�o Votorantim),Steel,,Industrial point source,,Bragado,Buenos Aires,-35.137117891147,-60.452089199364
Aceros Zapla,Aceros Zapla S.A.,Steel,,Industrial point source,http://www.aceroszapla.com.ar/empresa.php,Palpal�,Jujuy,-24.246098800446,-65.198160832031
Planta sider�rgica Gerdau Sipar P�rez,Gerdau SA,Steel,103031.00,Industrial point source,https://www.gem.wiki/Planta_sider%C3%BArgica_Gerdau_Sipar_P%C3%A9rez,P�rez,Santa Fe,-32.991233600000,-60.758873300000
ALUAR SA - GENERADOR,Aluar,Thermal power plant,210445.00,Industrial point source,,Puerto Madryn,Chubut,-42.743884803272,-65.048399271627
ARCOR MARIO SEVESO ARROYITO,,Thermal power plant,93267.00,Industrial point source,,,C�rdoba,,
C. TERMICAS MENDOZA PLUS,,Thermal power plant,788702.00,Industrial point source,,,Mendoza,,
C. TERMICAS MENDOZA SA,,Thermal power plant,297745.00,Industrial point source,,,Mendoza,,
C.COSTA ATLANTICA,,Thermal power plant,509899.00,Industrial point source,,,Buenos Aires,,
C.T. AES PARANA,,Thermal power plant,1717893.00,Industrial point source,,,Buenos Aires,,
C.T. AGUA DEL CAJON,,Thermal power plant,1108638.00,Industrial point source,,Neuqu�n,Neuqu�n,-38.935318779054,-68.357460746867
C.T. ALMIRANTE BROWN,Excell Power S.R.L.,Thermal power plant,7094.00,Industrial point source,,Burazco,Buenos Aires,-34.837660337743,-58.405685047387
C.T. LOMA DE LA LATA S.A.,C.T. LOMA DE LA LATA S.A.,Thermal power plant,1779653.00,Industrial point source,,Neuqu�n,Neuqu�n,-38.511789741886,-68.606378253807
C.T. PATAGONICAS SA,CENTRALES TERMICAS PATAGONICAS S.A.,Thermal power plant,27712.00,Industrial point source,,Comodoro Rivadavia,Chubut,-45.813906117753,-67.444277117473
C.T. SALTA (TERMOANDES),AES,Thermal power plant,1004183.00,Industrial point source,,Cobos,Salta,-24.742711706449,-65.051514960853
C.TERMICA ALTO VALLE,,Thermal power plant,198282.00,Industrial point source,,Neuqu�n,Neuqu�n,-38.951615939006,-68.021744873854
C.TERMICA GUEMES S.A.,,Thermal power plant,139062.00,Industrial point source,,,Salta,,
C.TERMICA SAN NICOLAS,AES,Thermal power plant,2158549.00,Industrial point source,,San Nicol�s de Los Arroyos,Buenos Aires,-33.358090736896,-60.174761787322
C.TERMICA SORRENTO,,Thermal power plant,20821.00,Industrial point source,,,Santa Fe,,
CAPEX S.A. AUTOGENERADOR,,Thermal power plant,1075683.00,Industrial point source,,,Neuqu�n,,
CENTRAL DIQUE S.A.,CENTRAL DIQUE S.A.,Thermal power plant,478.00,Industrial point source,,Ensenada,Buenos Aires,-34.889873579663,-57.933354360518
CENTRAL DOCK SUD,Central Dock Sud,Thermal power plant,2101890.00,Industrial point source,,Dock Sud,Buenos Aires,-34.653278614482,-58.343520587515
CENTRAL PIEDRA BUENA S.A.,Pampa Energ�a,Thermal power plant,243763.00,Industrial point source,,Ingeniero White,Buenos Aires,-38.784825227476,-62.256072711436
CENTRAL PUERTO SA,Central Puerto S.A.,Thermal power plant,3481800.00,Industrial point source,,Luj�n de Cuyo,Mendoza,-33.054331672917,-68.980717231873
CENTRAL T�RMICA LOMITA AUTOG.,,Thermal power plant,59300.00,Industrial point source,,,Neuqu�n,,
CENTRAL TERMICA PIQUIRENDA,Pampa Energ�a,Thermal power plant,25963.00,Industrial point source,,Piquirenda,Salta,-22.350046037543,-63.767005329713
COOP. MNO. MORENO BS. AS.GENER,,Thermal power plant,668.00,Industrial point source,,,Buenos Aires,,
CT 9 de JULIO C Cost ATLANTICA,Centrales de la Costa Atl�ntica S.A.,Thermal power plant,221258.00,Industrial point source,,Mar del Plata,Buenos Aires,-38.049493905321,-57.545535829713
CT ACONCAGUA ENERG�A AUTOGENER,,Thermal power plant,17.00,Industrial point source,,,Mendoza,,
CT ALEM - AGGREKO,,Thermal power plant,35577.00,Industrial point source,,,Misiones,,
CT ANCHORIS - METHAX,EMESA,Thermal power plant,50825.00,Industrial point source,,Tupungato,Mendoza,-33.313356395358,-68.891511462424
CT A�ATUYA - SULLAIR,,Thermal power plant,11557.00,Industrial point source,,A�atuya,Santiago del Estero,-28.445841312266,-62.855603190138
CT A�ATUYA II - SULLAIR,,Thermal power plant,4840.00,Industrial point source,,A�atuya,Santiago del Estero,-28.445841312266,-62.855603190138
CT ARISTOBU.DEL VALLE-SOENERGY,,Thermal power plant,24495.00,Industrial point source,,Arist�bulo del Valle,Misiones,-27.091237692973,-54.863442406587
CT ARRECIFES-AGGREKO,,Thermal power plant,8081.00,Industrial point source,,,Buenos Aires,,
CT BANDERA SgoEstero - ENARSA,,Thermal power plant,4539.00,Industrial point source,,,Santiago del Estero,,
CT BARILOCHE,,Thermal power plant,1392.00,Industrial point source,,,R�o Negro,,
CT BARKER CIERRE CC,,Thermal power plant,636102.00,Industrial point source,,Benito Ju�rez,Buenos Aires,-37.548588257877,-59.450665699447
CT BARRAGAN - ENARSA,ENARSA,Thermal power plant,319657.00,Industrial point source,,Ensenada,Buenos Aires,-34.859657508680,-57.955774029837
CT BARRANQUERAS Chaco,,Thermal power plant,3373.00,Industrial point source,,,Chaco,,
CT BELL VILLE - SULLAIR,SULLAIR ARGENTINA S.A.,Thermal power plant,6459.00,Industrial point source,,Bell Ville,C�rdoba,-32.610395618647,-62.685832245260
CT BRACHO CIERRE CC- Y-GEN S.A,,Thermal power plant,1242878.00,Industrial point source,,,Tucum�n,,
CT BRAGADO - EMGASUD,,Thermal power plant,7559.00,Industrial point source,,,Buenos Aires,,
CT BRAGADO 2 - GENNEIA,Genneia,Thermal power plant,79138.00,Industrial point source,,Bragado,Buenos Aires,-35.136513955612,-60.432414256814
CT BRAGADO 3 - GENNEIA,Genneia,Thermal power plant,92453.00,Industrial point source,,Bragado,Buenos Aires,-35.136513955612,-60.432414256814
CT BRIGADIER LOPEZ,Central Puerto S.A.,Thermal power plant,64572.00,Industrial point source,,Santa Fe,Santa Fe,-31.712841542501,-60.779300214608
CT CAIMANCITO -SULLAIR,,Thermal power plant,62571.00,Industrial point source,,Libertador Gral San Mart�n,Jujuy,-23.732268910377,-64.613993172527
CT CA�ADA DE GOMEZ - SECCO,Secco,Thermal power plant,105744.00,Industrial point source,,Ca�ada de G�mez,Santa Fe,-32.781872219229,-61.418433516418
CT CAPITAN SARMIENTO - SECCO,Secco,Thermal power plant,10205.00,Industrial point source,,,Buenos Aires,,
CT CASTELLI - AGGREKO,,Thermal power plant,9440.00,Industrial point source,,,Chaco,,
CT CATAMARCA - SECCO,,Thermal power plant,10013.00,Industrial point source,,,Catamarca,,
CT CERES - SECCO,,Thermal power plant,3924.00,Industrial point source,,,Santa Fe,,
CT CHARATA - SULLAIR,,Thermal power plant,7334.00,Industrial point source,,,Chaco,,
CT CHILECITO - SECCO,Secco,Thermal power plant,4810.00,Industrial point source,,Chilecito,La Rioja,-29.157337009257,-67.507466658118
CT CIPOLLETI - AGGREKO,,Thermal power plant,501.00,Industrial point source,,,R�o Negro,,
CT COLON BS.AS - SULLAIR,,Thermal power plant,5222.00,Industrial point source,,Col�n,Buenos Aires,-33.732012128137,-61.097098943922
CT CORRIENTES - AGGREKO,,Thermal power plant,7204.00,Industrial point source,,,Corrientes,,
CT EZEIZA ETAPA1 G MEDITERRANE,,Thermal power plant,56618.00,Industrial point source,,Carlos Spegazzini,Buenos Aires,-34.902743617093,-58.616923331727
CT EZEIZA ETAPA2 G MEDITERRANE,,Thermal power plant,32456.00,Industrial point source,,Carlos Spegazzini,Buenos Aires,-34.902743617093,-58.616923331727
CT FORMOSA - APR ENERGY,,Thermal power plant,5006.00,Industrial point source,,,Formosa,,
CT GENERAL ROJO CIERRE CC,,Thermal power plant,619957.00,Industrial point source,,San Nicol�s de Los Arroyos,Buenos Aires,-33.455414780766,-60.280902224428
CT GOYA - SECCO,,Thermal power plant,4754.00,Industrial point source,,Goya,Corrientes,-29.158216405042,-59.273457149072
CT GRAL. VILLEGAS - AGGREKO,,Thermal power plant,14209.00,Industrial point source,,,Buenos Aires,,
CT INDEPEND. ETAPA1 G MEDITERR,Grupo Albanesi,Thermal power plant,10088.00,Industrial point source,,San Miguel de Tucum�n,Tucum�n,-26.866965997646,-65.221828614766
CT INDEPEND. ETAPA2 G MEDITERR,Grupo Albanesi,Thermal power plant,9463.00,Industrial point source,,San Miguel de Tucum�n,Tucum�n,-26.866965997646,-65.221828614766
CT ING JUAREZ - SECCO,,Thermal power plant,2692.00,Industrial point source,,Ingeniero Ju�rez,Formosa,-23.909016867446,-61.831502449431
CT INTA CATAMARCA - SECCO,,Thermal power plant,3559.00,Industrial point source,,,Catamarca,,
CT ISLA VERDE - AGGREKO,,Thermal power plant,7670.00,Industrial point source,,,C�rdoba,,
CT ITATI - TURBODISEL,,Thermal power plant,1498.00,Industrial point source,,,Corrientes,,
CT JUNIN,,Thermal power plant,14479.00,Industrial point source,,,Buenos Aires,,
CT LA PAZ Entre Rios - ENARSA,,Thermal power plant,2674.00,Industrial point source,,,Entre R�os,,
CT LA PLATA - SULLAIR,,Thermal power plant,14048.00,Industrial point source,,San Carlos,Buenos Aires,-34.933866404668,-58.016400581537
CT LA RIOJA - SECCO,,Thermal power plant,7688.00,Industrial point source,,,La Rioja,,
CT LA RIOJA SUR- SECCO,,Thermal power plant,3506.00,Industrial point source,,,La Rioja,,
CT LAGUNA BLANCA - SECCO,,Thermal power plant,4457.00,Industrial point source,,Laguna Blanca,Formosa,-25.126950545234,-58.259150732006
CT LAS ARMAS II - EMGASUD,,Thermal power plant,606.00,Industrial point source,,,#NV,,
CT LAS PALMAS 2 - ARAUCARIA,,Thermal power plant,100667.00,Industrial point source,,,Buenos Aires,,
CT LAS PALMAS -TURBODISEL,,Thermal power plant,543.00,Industrial point source,,,Chaco,,
CT LIBERTADOR GSM - SULLAIR,,Thermal power plant,3331.00,Industrial point source,,,Jujuy,,
CT LINCOLN,,Thermal power plant,5898.00,Industrial point source,,Lincoln,Buenos Aires,-34.857167311038,-61.520703831684
CT LOBOS BS.AS - SULLAIR,,Thermal power plant,23328.00,Industrial point source,,,Buenos Aires,,
CT LOMA CAMPANA 1 -YPF,,Thermal power plant,93992.00,Industrial point source,,,Neuqu�n,,
CT LOMA CAMPANA 2 -Y-GEN ELECT,,Thermal power plant,164946.00,Industrial point source,,,Neuqu�n,,
CT LOMA DE LA LATA II(NEUQEUN),,Thermal power plant,228867.00,Industrial point source,,,Neuqu�n,,
CT LUJAN II - ARAUCARIA ENERGY,,Thermal power plant,68363.00,Industrial point source,,,Buenos Aires,,
CT MAGDALENA - APR ENERGY,,Thermal power plant,4433.00,Industrial point source,,,Buenos Aires,,
CT MATHEU II - APR ENERGY,,Thermal power plant,1875.00,Industrial point source,,,Buenos Aires,,
CT MIRAMAR I - ENERGYST,,Thermal power plant,23587.00,Industrial point source,,,Buenos Aires,,
CT ORAN - SECCO,,Thermal power plant,3717.00,Industrial point source,,,Salta,,
CT PARQUE INDUSTR.CATAM-SECCO,,Thermal power plant,8843.00,Industrial point source,,,Catamarca,,
CT PASO LA PATRIA-TURBODISEL,,Thermal power plant,1189.00,Industrial point source,,,Corrientes,,
CT PEREZ - SECCO,,Thermal power plant,109776.00,Industrial point source,,,Santa Fe,,
CT PIEDRABUENA MG(L.LATA),,Thermal power plant,173945.00,Industrial point source,,,Buenos Aires,,
CT PILAR - EPEC,,Thermal power plant,1055603.00,Industrial point source,,,C�rdoba,,
CT PILAR BS AS- PAMPA ENERG�A,,Thermal power plant,187528.00,Industrial point source,,,Buenos Aires,,
CT PIRANE - SULLAIR,,Thermal power plant,10675.00,Industrial point source,,,Formosa,,
CT PRESIDENCIA ROCA,,Thermal power plant,1276.00,Industrial point source,,,Chaco,,
CT RAFAELA - SECCO,,Thermal power plant,7300.00,Industrial point source,,,Santa Fe,,
CT REALICO - SECCO,,Thermal power plant,6721.00,Industrial point source,,,La Pampa,,
CT RENOVA - ALBANESI ENERGIA,,Thermal power plant,457321.00,Industrial point source,,,Santa Fe,,
CT RIO TERCERO II - SoENERGY,,Thermal power plant,30138.00,Industrial point source,,,C�rdoba,,
CT ROCA SA,,Thermal power plant,502028.00,Industrial point source,,,R�o Negro,,
CT RUFINO Sta Fe - ENARSA,,Thermal power plant,8965.00,Industrial point source,,,Santa Fe,,
CT SAENZ PE�A - APR ENERGY,,Thermal power plant,3654.00,Industrial point source,,,Chaco,,
CT SAENZ PE�A II- AGGREKO,,Thermal power plant,4626.00,Industrial point source,,,Chaco,,
CT SALTO 2 - SoENERGY,,Thermal power plant,103648.00,Industrial point source,,,Buenos Aires,,
CT SAN MARTIN Chaco,,Thermal power plant,1320.00,Industrial point source,,,Chaco,,
CT SAN PEDRO - CIERRE CC,,Thermal power plant,33804.00,Industrial point source,,,Buenos Aires,,
CT SAN PEDRO - SPI ENERGY SA,,Thermal power plant,46087.00,Industrial point source,,,Buenos Aires,,
CT SAN SALVADOR E.Rios -ENARSA,,Thermal power plant,1815.00,Industrial point source,,,Entre R�os,,
CT SAN VICENTE BsAs - ENARSA,,Thermal power plant,4595.00,Industrial point source,,,Buenos Aires,,
CT SANTA ROSA -TURBODISEL,,Thermal power plant,1988.00,Industrial point source,,,Corrientes,,
CT TEREVINTOS - SECCO,,Thermal power plant,2652.00,Industrial point source,,,Catamarca,,
CT TINOGASTA - SULLAIR,,Thermal power plant,4169.00,Industrial point source,,,Catamarca,,
CT VENADO TUERTO - SECCO,,Thermal power plant,7617.00,Industrial point source,,,Santa Fe,,
CT VIALE - AGGREKO,,Thermal power plant,4529.00,Industrial point source,,,Entre R�os,,
CT VILLA ANGELA - AGGREKO,,Thermal power plant,4977.00,Industrial point source,,,Chaco,,
CT VILLA GESELL-CATLANT.,,Thermal power plant,333196.00,Industrial point source,,,Buenos Aires,,
CT VILLA MARIA CIERRE CC-UENSA,,Thermal power plant,630749.00,Industrial point source,,,C�rdoba,,
CT VILLA OCAMPO - SECCO,,Thermal power plant,32945.00,Industrial point source,,,Santa Fe,,
CT VUELTA DE OBLIGADO,,Thermal power plant,1829953.00,Industrial point source,,,Santa Fe,,
CT ZAPPALORTO - APR ENERGY,,Thermal power plant,15249.00,Industrial point source,,,Buenos Aires,,
EDECAT GENERACION,,Thermal power plant,397.00,Industrial point source,,,Catamarca,,
EDELAR GENERACION,,Thermal power plant,18733.00,Industrial point source,,,La Rioja,,
EDEN GENERACION,,Thermal power plant,1627.00,Industrial point source,,,Buenos Aires,,
ELECTROPATAGONIA-C.RIV-C.COMB.,,Thermal power plant,15137.00,Industrial point source,,,Chubut,,
EMP.DIS.S.ESTERO GENERACION,,Thermal power plant,4901.00,Industrial point source,,,Santiago del Estero,,
EMSA GENERACION,,Thermal power plant,10472.00,Industrial point source,,,Misiones,,
ENDESA COSTANERA SA,,Thermal power plant,2518331.00,Industrial point source,,,Buenos Aires,,
ENERGIA DEL SUR S.A.,,Thermal power plant,226761.00,Industrial point source,,,Chubut,,
EPEC GENERACION,,Thermal power plant,15814.00,Industrial point source,,,C�rdoba,,
GEN.MEDITERRANEA (CONT.PLUS),,Thermal power plant,36744.00,Industrial point source,,,C�rdoba,,
GEN.MEDITERRANEA GRUPO 5,,Thermal power plant,27675.00,Industrial point source,,,C�rdoba,,
GENELBA - PETROBRAS,,Thermal power plant,1898589.00,Industrial point source,,,Buenos Aires,,
GENELBA - RES.287,,Thermal power plant,1396334.00,Industrial point source,,,Buenos Aires,,
GENERACION FRIAS S.A.,,Thermal power plant,15755.00,Industrial point source,,,Santiago del Estero,,
GENERACION INDEPENDENCIA S.A.,,Thermal power plant,28961.00,Industrial point source,,,Tucum�n,,
GENERACION LA BANDA S.A.,,Thermal power plant,2514.00,Industrial point source,,,Santiago del Estero,,
GENERACION MEDITERRANEA,,Thermal power plant,6470.00,Industrial point source,,,C�rdoba,,
GENERACION MEDITERRANEA 220,,Thermal power plant,31381.00,Industrial point source,,,C�rdoba,,
GENERACION RIOJANA SA,,Thermal power plant,13132.00,Industrial point source,,,La Rioja,,
GENERADORA CORDOBA S.A.,,Thermal power plant,1537.00,Industrial point source,,,C�rdoba,,
GENERADORA ELEC.TUCUMAN SA,,Thermal power plant,9198.00,Industrial point source,,,Tucum�n,,
HIDROTERMICA SAN JUAN,,Thermal power plant,6068.00,Industrial point source,,,San Juan,,
LA PLATA COGENERACION SA,,Thermal power plant,339665.00,Industrial point source,,,Buenos Aires,,
LEDESMA SAAI,,Thermal power plant,7544.00,Industrial point source,,,Jujuy,,
LUJAN DE CUYO COGENERAC.PUERTO,,Thermal power plant,265976.00,Industrial point source,,,Mendoza,,
MOLINOS AGRO AG.(Ex.Mol Rio P),,Thermal power plant,222.00,Industrial point source,,,Santa Fe,,
MOTOGENERADORES COSTANERA,,Thermal power plant,47985.00,Industrial point source,,,Buenos Aires,,
NIDERA SAFORCADA-Junin,,Thermal power plant,20.00,Industrial point source,,,Buenos Aires,,
PAMPA ENERGIA SA,,Thermal power plant,78724.00,Industrial point source,,,Salta,,
REFINERIA LA PLATA AUTOG,,Thermal power plant,10998.00,Industrial point source,,,Buenos Aires,,
SHELL CAPSA PTA. DOCK SUD,,Thermal power plant,25501.00,Industrial point source,,,Buenos Aires,,
SIDERAR PTA. IND. SAN NICOLAS,,Thermal power plant,31.00,Industrial point source,,,Buenos Aires,,
SINOPEC Arg. - El Huemul,,Thermal power plant,29407.00,Industrial point source,,,Santa Cruz,,
SINOPEC Arg. - Meseta Espinosa,,Thermal power plant,13683.00,Industrial point source,,,Santa Cruz,,
SOLALBAN ENERGIA SA,,Thermal power plant,42405.00,Industrial point source,,,Buenos Aires,,
TERMINAL 6 COGENERACION PUERTO,,Thermal power plant,209988.00,Industrial point source,,,Santa Fe,,
TERMOELE. JOSE SAN MARTIN S.A,,Thermal power plant,2045982.00,Industrial point source,,,Santa Fe,,
TERMOELECTRICA GUILLERMO BROWN,,Thermal power plant,1021465.00,Industrial point source,,,Buenos Aires,,
TERMOELECTRICA M.BELGRANO S.A.,,Thermal power plant,2150020.00,Industrial point source,,,Buenos Aires,,
YAC.ENTRE LOMAS AUTOGENERADOR,,Thermal power plant,27680.00,Industrial point source,,,R�o Negro,,
YPF Autogenerador Pza. Huincul,,Thermal power plant,161867.00,Industrial point source,,,Neuqu�n,,
YPF CT MANANTIALES BEHR II AG,,Thermal power plant,8767.00,Industrial point source,,,Chubut,,
YPF EL TREBOL CT MANANT. BEHR,,Thermal power plant,6.00,Industrial point source,,,Chubut,,
YPF ENERG�A ELECTR.ex PLUSPETG,,Thermal power plant,1400041.00,Industrial point source,,,Tucum�n,,
YPF LA PLATA COGENERACION,,Thermal power plant,228277.00,Industrial point source,,,Buenos Aires,,
YPF LOS PERALES AUTOG,,Thermal power plant,68352.00,Industrial point source,,,Santa Cruz,,
YPF YAC P.HERNANDEZ AUTOG,,Thermal power plant,26.00,Industrial point source,,,Neuqu�n,,
BIOGAS CT AVELLANEDA SECCO,,Biogas Power Plant,41391.00,Biogenic point source,,,SANTA FE,,
CENTRAL BIOELECTRICA R.CUARTO1,,Biogas Power Plant,13140.00,Biogenic point source,,,CORDOBA,,
C.BIOELECT.R.CUARTO1 REN2,,Biogas Power Plant,10249.20,Biogenic point source,,,CORDOBA,,
C.BIOELECT.R.CUARTO2 REN1,,Biogas Power Plant,7884.00,Biogenic point source,,,CORDOBA,,
C.BIOELECT.R.CUARTO2 REN2,,Biogas Power Plant,7884.00,Biogenic point source,,,CORDOBA,,
BIOGAS CTBG CITRUSVIL-ALCOVIL,,Biogas Power Plant,19710.00,Biogenic point source,,,TUCUMAN,,
BIOGAS RS CT ENSENADA SECCO,,Biogas Power Plant,34821.00,Biogenic point source,,,BUENOS AIRES,,
CTBG GENERAL ALVEAR,,Biogas Power Plant,6570.00,Biogenic point source,,,BUENOS AIRES,,
BIOGAS CTBG GIGENA I,,Biogas Power Plant,7884.00,Biogenic point source,,,CORDOBA,,
BIOGAS CTBG JUSTO DARACT,,Biogas Power Plant,6570.00,Biogenic point source,,,SAN LUIS,,
BIOGAS CTBG PACUCA BIO ENERG�A,,Biogas Power Plant,6570.00,Biogenic point source,,,BUENOS AIRES,,
BIOGAS CTBG PERGAMINO,,Biogas Power Plant,15768.00,Biogenic point source,,,BUENOS AIRES,,
C.T.SAN MARTIN NORTE 3A,,Biogas Power Plant,33507.00,Biogenic point source,,,BUENOS AIRES,,
CT SAN MIGUEL NORTE III-ENARSA,,Biogas Power Plant,75555.00,Biogenic point source,,,BUENOS AIRES,,
ENERGIA AGRO S.A.U,,Biogas Power Plant,9296.55,Biogenic point source,,,SANTA FE,,
BIOGAS CTBG TIGONBU,,Biogas Power Plant,13140.00,Biogenic point source,,,SAN LUIS,,
BIOGAS CTBG VILLA DEL ROS. CGY,,Biogas Power Plant,6570.00,Biogenic point source,,,CORDOBA,,
BIOGAS CTBG VENADO TUERTO,,Biogas Power Plant,13797.00,Biogenic point source,,,SANTA FE,,
BIO ENERG�A YANQUETRUZ S.A.,,Biogas Power Plant,9855.00,Biogenic point source,,,SAN LUIS,,
BIOGAS CTBG ENRECO,,Biogas Power Plant,13140.00,Biogenic point source,,,CORDOBA,,
CTBG BIO ENERG�A YANQUETRUZ II,,Biogas Power Plant,5256.00,Biogenic point source,,,SAN LUIS,,
CTBG BIO. SANTA CATALINA,,Biogas Power Plant,13140.00,Biogenic point source,,,CORDOBA,,
BIOGAS CTBG AB ENERG�A,,Biogas Power Plant,13140.00,Biogenic point source,,,LA PAMPA,,
CT BIOMASA MM BIOENERG�A,,Biogas Power Plant,19710.00,Biogenic point source,,,MISIONES,,
CTBRS SAN MART�N NORTE III-D,,Biogas Power Plant,33507.00,Biogenic point source,,,BUENOS AIRES,,
BIOGAS CTBG ARRE BEEF SA,,Biogas Power Plant,9855.00,Biogenic point source,,,BUENOS AIRES,,
BIOGAS CT RESENER SA,,Biogas Power Plant,5256.00,Biogenic point source,,,BUENOS AIRES,,
CTBG POLLOS SAN MATEO,,Biogas Power Plant,15768.00,Biogenic point source,,,CORDOBA,,
CTBG GENERAL VILLEGAS Ren 2,,Biogas Power Plant,8015.40,Biogenic point source,,,BUENOS AIRES,,
YPF Plaza Huincul,YPF SA,Methanol,275370.00,Industrial point source,,,Neuqu�n,,
Arauco General San Martin,Arauco Argentina S.A. ,Methanol,33500.00,Industrial point source,,,Santa Fe,,
La Plata Refinery,YPF SA,Refinery,2224965.52,Industrial point source,,,,,
Lujan de Cuyo Refinery,YPF SA,Refinery,1229586.21,Industrial point source,,,,,
Plaza Huincul Refinery,YPF SA,Refinery,292758.62,Industrial point source,,,,,
Raizen Dock Sud,Raizen,Refinery,1171034.48,Industrial point source,,,,,
Axion Campana Refinery,PAE,Refinery,1171034.48,Industrial point source,,,,,
DAPSA,,,0.00,Industrial point source,,,,,
Dock Sud Refinery,,Refinery,0.00,Industrial point source,,,,,
REFINOR Campo Duran Refinery,,Refinery,351310.34,Industrial point source,,,,,
TRAFIGURA Bahia Blanca Refinery,,Refinery,351310.34,Industrial point source,,,,,
OIL Combustibles San Lorenzo Refinery,,Refinery,0.00,Industrial point source,,,,,
PAMPA ENERGIA SA,,Etileno,25916.00,Industrial point source,,Pto General San Mart�n,Santa Fe,,
PBB Polisur S.A.,,Etileno,229900.00,Industrial point source,,Bahia Blanca,Buenos Aires,,
PBB Polisur S.A.,,Etileno,355300.00,Industrial point source,,Bahia Blanca,Buenos Aires,,
